{
  "type": "FeatureCollection",
  "features": [
    {
      "type": "Feature",
      "properties": {
        "norad_id": 66647,
        "name": "COSMOS 2597 (RODNIK-S 22)",
        "group": "last-30-days",
        "lat": 36.45634471979693,
        "lon": 92.25601844421223,
        "alt_km": 1497.676215369489,
        "timestamp": "2025-12-26T14:28:46.394381+00:00",
        "meta_object_name": "COSMOS 2597 (RODNIK-S 22)",
        "meta_object_id": "2025-273A",
        "meta_epoch": "2025-12-26T05:58:37.985664",
        "meta_mean_motion": 12.41952304,
        "meta_eccentricity": 0.00075998,
        "meta_inclination": 82.4994,
        "meta_ra_of_asc_node": 278.0609,
        "meta_arg_of_pericenter": 254.1413,
        "meta_mean_anomaly": 105.8829,
        "meta_ephemeris_type": 0,
        "meta_classification_type": "U",
        "meta_norad_cat_id": 66647,
        "meta_element_set_no": 999,
        "meta_rev_at_epoch": 381,
        "meta_bstar": 0.00016676657,
        "meta_mean_motion_dot": 3.3e-07,
        "meta_mean_motion_ddot": 0,
        "tle_line1": "1 66647U 25273A   25360.24905076  .00000033  00000+0  16677-3 0  9992",
        "tle_line2": "2 66647  82.4994 278.0609 0007599 254.1413 105.8829 12.41952304  3815"
      },
      "geometry": {
        "type": "Point",
        "coordinates": [
          92.25601844421223,
          36.45634471979693
        ]
      }
    },
    {
      "type": "Feature",
      "properties": {
        "norad_id": 66648,
        "name": "COSMOS 2598 (RODNIK-S 23)",
        "group": "last-30-days",
        "lat": -61.93786900968526,
        "lon": 112.12422085523552,
        "alt_km": 1495.0110681588076,
        "timestamp": "2025-12-26T14:28:46.394393+00:00",
        "meta_object_name": "COSMOS 2598 (RODNIK-S 23)",
        "meta_object_id": "2025-273B",
        "meta_epoch": "2025-12-26T05:27:06.894432",
        "meta_mean_motion": 12.43233693,
        "meta_eccentricity": 0.00082328,
        "meta_inclination": 82.5032,
        "meta_ra_of_asc_node": 278.0592,
        "meta_arg_of_pericenter": 204.7106,
        "meta_mean_anomaly": 155.3581,
        "meta_ephemeris_type": 0,
        "meta_classification_type": "U",
        "meta_norad_cat_id": 66648,
        "meta_element_set_no": 999,
        "meta_rev_at_epoch": 381,
        "meta_bstar": 0.00016649005,
        "meta_mean_motion_dot": 3.3e-07,
        "meta_mean_motion_ddot": 0,
        "tle_line1": "1 66648U 25273B   25360.22716313  .00000033  00000+0  16649-3 0  9994",
        "tle_line2": "2 66648  82.5032 278.0592 0008232 204.7106 155.3581 12.43233693  3816"
      },
      "geometry": {
        "type": "Point",
        "coordinates": [
          112.12422085523552,
          -61.93786900968526
        ]
      }
    },
    {
      "type": "Feature",
      "properties": {
        "norad_id": 66649,
        "name": "COSMOS 2599 (RODNIK-S 24)",
        "group": "last-30-days",
        "lat": 80.75744503311005,
        "lon": -28.13096763312327,
        "alt_km": 1498.9098715631853,
        "timestamp": "2025-12-26T14:28:46.394405+00:00",
        "meta_object_name": "COSMOS 2599 (RODNIK-S 24)",
        "meta_object_id": "2025-273C",
        "meta_epoch": "2025-12-26T06:17:11.520096",
        "meta_mean_motion": 12.41152378,
        "meta_eccentricity": 0.00063425,
        "meta_inclination": 82.505,
        "meta_ra_of_asc_node": 278.0895,
        "meta_arg_of_pericenter": 242.1037,
        "meta_mean_anomaly": 117.94,
        "meta_ephemeris_type": 0,
        "meta_classification_type": "U",
        "meta_norad_cat_id": 66649,
        "meta_element_set_no": 999,
        "meta_rev_at_epoch": 381,
        "meta_bstar": 0.00024799989,
        "meta_mean_motion_dot": 4.3e-07,
        "meta_mean_motion_ddot": 0,
        "tle_line1": "1 66649U 25273C   25360.26193889  .00000043  00000+0  24800-3 0  9995",
        "tle_line2": "2 66649  82.5050 278.0895 0006342 242.1037 117.9400 12.41152378  3814"
      },
      "geometry": {
        "type": "Point",
        "coordinates": [
          -28.13096763312327,
          80.75744503311005
        ]
      }
    },
    {
      "type": "Feature",
      "properties": {
        "norad_id": 66650,
        "name": "BEE-1000",
        "group": "last-30-days",
        "lat": 5.706259444448875,
        "lon": 108.3161470429241,
        "alt_km": 587.9154952769186,
        "timestamp": "2025-12-26T14:28:46.394416+00:00",
        "meta_object_name": "BEE-1000",
        "meta_object_id": "2025-274A",
        "meta_epoch": "2025-12-26T00:49:18.623712",
        "meta_mean_motion": 14.91705123,
        "meta_eccentricity": 0.00111777,
        "meta_inclination": 97.7406,
        "meta_ra_of_asc_node": 286.9787,
        "meta_arg_of_pericenter": 202.6994,
        "meta_mean_anomaly": 157.3732,
        "meta_ephemeris_type": 0,
        "meta_classification_type": "U",
        "meta_norad_cat_id": 66650,
        "meta_element_set_no": 999,
        "meta_rev_at_epoch": 438,
        "meta_bstar": 0.0001675141,
        "meta_mean_motion_dot": 1.631e-05,
        "meta_mean_motion_ddot": 0,
        "tle_line1": "1 66650U 25274A   25360.03424333  .00001631  00000+0  16751-3 0  9994",
        "tle_line2": "2 66650  97.7406 286.9787 0011177 202.6994 157.3732 14.91705123  4380"
      },
      "geometry": {
        "type": "Point",
        "coordinates": [
          108.3161470429241,
          5.706259444448875
        ]
      }
    },
    {
      "type": "Feature",
      "properties": {
        "norad_id": 66651,
        "name": "2025-274B",
        "group": "last-30-days",
        "lat": -7.268514885772639,
        "lon": 106.54747537539544,
        "alt_km": 588.1796510155091,
        "timestamp": "2025-12-26T14:28:46.394426+00:00",
        "meta_object_name": "2025-274B",
        "meta_object_id": "2025-274B",
        "meta_epoch": "2025-12-26T05:35:39.357888",
        "meta_mean_motion": 14.91896477,
        "meta_eccentricity": 0.00113841,
        "meta_inclination": 97.74,
        "meta_ra_of_asc_node": 287.1779,
        "meta_arg_of_pericenter": 200.1426,
        "meta_mean_anomaly": 159.9345,
        "meta_ephemeris_type": 0,
        "meta_classification_type": "U",
        "meta_norad_cat_id": 66651,
        "meta_element_set_no": 999,
        "meta_rev_at_epoch": 441,
        "meta_bstar": 0.00040477809,
        "meta_mean_motion_dot": 4.042e-05,
        "meta_mean_motion_ddot": 0,
        "tle_line1": "1 66651U 25274B   25360.23309442  .00004042  00000+0  40478-3 0  9992",
        "tle_line2": "2 66651  97.7400 287.1779 0011384 200.1426 159.9345 14.91896477  4417"
      },
      "geometry": {
        "type": "Point",
        "coordinates": [
          106.54747537539544,
          -7.268514885772639
        ]
      }
    },
    {
      "type": "Feature",
      "properties": {
        "norad_id": 66652,
        "name": "2025-274C",
        "group": "last-30-days",
        "lat": -19.50217508512764,
        "lon": 104.78719287803658,
        "alt_km": 589.3827399145412,
        "timestamp": "2025-12-26T14:28:46.394436+00:00",
        "meta_object_name": "2025-274C",
        "meta_object_id": "2025-274C",
        "meta_epoch": "2025-12-26T05:32:22.270848",
        "meta_mean_motion": 14.91980324,
        "meta_eccentricity": 0.00109079,
        "meta_inclination": 97.7406,
        "meta_ra_of_asc_node": 287.1825,
        "meta_arg_of_pericenter": 206.9839,
        "meta_mean_anomaly": 153.0814,
        "meta_ephemeris_type": 0,
        "meta_classification_type": "U",
        "meta_norad_cat_id": 66652,
        "meta_element_set_no": 999,
        "meta_rev_at_epoch": 441,
        "meta_bstar": 0.00033904345,
        "meta_mean_motion_dot": 3.383e-05,
        "meta_mean_motion_ddot": 0,
        "tle_line1": "1 66652U 25274C   25360.23081332  .00003383  00000+0  33904-3 0  9991",
        "tle_line2": "2 66652  97.7406 287.1825 0010907 206.9839 153.0814 14.91980324  4419"
      },
      "geometry": {
        "type": "Point",
        "coordinates": [
          104.78719287803658,
          -19.50217508512764
        ]
      }
    },
    {
      "type": "Feature",
      "properties": {
        "norad_id": 66653,
        "name": "2025-274D",
        "group": "last-30-days",
        "lat": -19.815859962067144,
        "lon": 104.73864498715807,
        "alt_km": 588.735776802544,
        "timestamp": "2025-12-26T14:28:46.394447+00:00",
        "meta_object_name": "2025-274D",
        "meta_object_id": "2025-274D",
        "meta_epoch": "2025-12-26T00:42:33.283296",
        "meta_mean_motion": 14.91968008,
        "meta_eccentricity": 0.00118768,
        "meta_inclination": 97.7404,
        "meta_ra_of_asc_node": 286.9844,
        "meta_arg_of_pericenter": 204.3083,
        "meta_mean_anomaly": 155.7577,
        "meta_ephemeris_type": 0,
        "meta_classification_type": "U",
        "meta_norad_cat_id": 66653,
        "meta_element_set_no": 999,
        "meta_rev_at_epoch": 438,
        "meta_bstar": 0.00025672676,
        "meta_mean_motion_dot": 2.547e-05,
        "meta_mean_motion_ddot": 0,
        "tle_line1": "1 66653U 25274D   25360.02955189  .00002547  00000+0  25673-3 0  9994",
        "tle_line2": "2 66653  97.7404 286.9844 0011876 204.3083 155.7577 14.91968008  4381"
      },
      "geometry": {
        "type": "Point",
        "coordinates": [
          104.73864498715807,
          -19.815859962067144
        ]
      }
    }
  ]
}